<?xml version="1.0" encoding="UTF-8"?>
<gpx xmlns:ns3="http://www.garmin.com/xmlschemas/TrackPointExtension/v1" xmlns="http://www.topografix.com/GPX/1/1" xmlns:xsi="http://www.w3.org/2001/XMLSchema-instance" xmlns:ns2="http://www.garmin.com/xmlschemas/GpxExtensions/v3" creator="Garmin Connect" version="1.1" xsi:schemaLocation="http://www.topografix.com/GPX/1/1 http://www.topografix.com/GPX/11.xsd">
  <metadata>
    <link href="connect.garmin.com">
      <text>Garmin Connect</text>
    </link>
    <time>2020-01-01T03:39:23.000Z</time>
  </metadata>
  <trk>
    <name>小油坑上七星山</name>
    <type>hiking</type>
    <trkseg>
      <trkpt lat="25.17669129185378551483154296875" lon="121.547364927828311920166015625">
        <ele>813</ele>
        <time>2020-01-01T03:39:58.000Z</time>
        <extensions>
          <ns3:TrackPointExtension/>
        </extensions>
      </trkpt>
      <trkpt lat="25.176743008196353912353515625" lon="121.54754153452813625335693359375">
        <ele>812.5999755859375</ele>
        <time>2020-01-01T03:40:19.000Z</time>
        <extensions>
          <ns3:TrackPointExtension/>
        </extensions>
      </trkpt>
      <trkpt lat="25.17675767652690410614013671875" lon="121.54757707379758358001708984375">
        <ele>812.5999755859375</ele>
        <time>2020-01-01T03:40:23.000Z</time>
        <extensions>
          <ns3:TrackPointExtension/>
        </extensions>
      </trkpt>
      <trkpt lat="25.1767639629542827606201171875" lon="121.54758830554783344268798828125">
        <ele>812.5999755859375</ele>
        <time>2020-01-01T03:40:30.000Z</time>
        <extensions>
          <ns3:TrackPointExtension/>
        </extensions>
      </trkpt>
      <trkpt lat="25.17676186747848987579345703125" lon="121.54758981429040431976318359375">
        <ele>812.5999755859375</ele>
        <time>2020-01-01T03:40:33.000Z</time>
        <extensions>
          <ns3:TrackPointExtension/>
        </extensions>
      </trkpt>
      <trkpt lat="25.17675080336630344390869140625" lon="121.547673381865024566650390625">
        <ele>812.5999755859375</ele>
        <time>2020-01-01T03:40:43.000Z</time>
        <extensions>
          <ns3:TrackPointExtension/>
        </extensions>
      </trkpt>
      <trkpt lat="25.17674627713859081268310546875" lon="121.54786960221827030181884765625">
        <ele>813.20001220703125</ele>
        <time>2020-01-01T03:41:02.000Z</time>
        <extensions>
          <ns3:TrackPointExtension/>
        </extensions>
      </trkpt>
      <trkpt lat="25.17675264738500118255615234375" lon="121.54790061526000499725341796875">
        <ele>813.4000244140625</ele>
        <time>2020-01-01T03:41:05.000Z</time>
        <extensions>
          <ns3:TrackPointExtension/>
        </extensions>
      </trkpt>
      <trkpt lat="25.1767602749168872833251953125" lon="121.5480131842195987701416015625">
        <ele>814.4000244140625</ele>
        <time>2020-01-01T03:41:18.000Z</time>
        <extensions>
          <ns3:TrackPointExtension/>
        </extensions>
      </trkpt>
      <trkpt lat="25.1767508871853351593017578125" lon="121.54803707264363765716552734375">
        <ele>814.79998779296875</ele>
        <time>2020-01-01T03:41:21.000Z</time>
        <extensions>
          <ns3:TrackPointExtension/>
        </extensions>
      </trkpt>
      <trkpt lat="25.1765738613903522491455078125" lon="121.5481063909828662872314453125">
        <ele>818.4000244140625</ele>
        <time>2020-01-01T03:41:58.000Z</time>
        <extensions>
          <ns3:TrackPointExtension/>
        </extensions>
      </trkpt>
      <trkpt lat="25.17638669349253177642822265625" lon="121.5480899624526500701904296875">
        <ele>821.4000244140625</ele>
        <time>2020-01-01T03:42:15.000Z</time>
        <extensions>
          <ns3:TrackPointExtension/>
        </extensions>
      </trkpt>
      <trkpt lat="25.176333971321582794189453125" lon="121.54810178093612194061279296875">
        <ele>822.4000244140625</ele>
        <time>2020-01-01T03:42:22.000Z</time>
        <extensions>
          <ns3:TrackPointExtension/>
        </extensions>
      </trkpt>
      <trkpt lat="25.1763079874217510223388671875" lon="121.54810178093612194061279296875">
        <ele>822.79998779296875</ele>
        <time>2020-01-01T03:42:27.000Z</time>
        <extensions>
          <ns3:TrackPointExtension/>
        </extensions>
      </trkpt>
      <trkpt lat="25.17628896050155162811279296875" lon="121.5480983443558216094970703125">
        <ele>823.20001220703125</ele>
        <time>2020-01-01T03:42:31.000Z</time>
        <extensions>
          <ns3:TrackPointExtension/>
        </extensions>
      </trkpt>
      <trkpt lat="25.1762804947793483734130859375" lon="121.548093147575855255126953125">
        <ele>823.20001220703125</ele>
        <time>2020-01-01T03:42:33.000Z</time>
        <extensions>
          <ns3:TrackPointExtension/>
        </extensions>
      </trkpt>
      <trkpt lat="25.1762717776000499725341796875" lon="121.5480768866837024688720703125">
        <ele>823</ele>
        <time>2020-01-01T03:42:37.000Z</time>
        <extensions>
          <ns3:TrackPointExtension/>
        </extensions>
      </trkpt>
      <trkpt lat="25.176262557506561279296875" lon="121.5480752103030681610107421875">
        <ele>823</ele>
        <time>2020-01-01T03:42:39.000Z</time>
        <extensions>
          <ns3:TrackPointExtension/>
        </extensions>
      </trkpt>
      <trkpt lat="25.1762585341930389404296875" lon="121.54809725470840930938720703125">
        <ele>823.20001220703125</ele>
        <time>2020-01-01T03:42:43.000Z</time>
        <extensions>
          <ns3:TrackPointExtension/>
        </extensions>
      </trkpt>
      <trkpt lat="25.17624671570956707000732421875" lon="121.54810111038386821746826171875">
        <ele>823.20001220703125</ele>
        <time>2020-01-01T03:42:47.000Z</time>
        <extensions>
          <ns3:TrackPointExtension/>
        </extensions>
      </trkpt>
      <trkpt lat="25.17624688334763050079345703125" lon="121.54810094274580478668212890625">
        <ele>823.20001220703125</ele>
        <time>2020-01-01T03:42:55.000Z</time>
        <extensions>
          <ns3:TrackPointExtension/>
        </extensions>
      </trkpt>
      <trkpt lat="25.1762251742184162139892578125" lon="121.548102200031280517578125">
        <ele>823.20001220703125</ele>
        <time>2020-01-01T03:43:02.000Z</time>
        <extensions>
          <ns3:TrackPointExtension/>
        </extensions>
      </trkpt>
      <trkpt lat="25.17621536739170551300048828125" lon="121.54809641651809215545654296875">
        <ele>823</ele>
        <time>2020-01-01T03:43:04.000Z</time>
        <extensions>
          <ns3:TrackPointExtension/>
        </extensions>
      </trkpt>
      <trkpt lat="25.17620011232793331146240234375" lon="121.5480845980346202850341796875">
        <ele>822.79998779296875</ele>
        <time>2020-01-01T03:43:06.000Z</time>
        <extensions>
          <ns3:TrackPointExtension/>
        </extensions>
      </trkpt>
      <trkpt lat="25.1761815883219242095947265625" lon="121.54807160608470439910888671875">
        <ele>822.5999755859375</ele>
        <time>2020-01-01T03:43:08.000Z</time>
        <extensions>
          <ns3:TrackPointExtension/>
        </extensions>
      </trkpt>
      <trkpt lat="25.17614579759538173675537109375" lon="121.54805232770740985870361328125">
        <ele>822.5999755859375</ele>
        <time>2020-01-01T03:43:12.000Z</time>
        <extensions>
          <ns3:TrackPointExtension/>
        </extensions>
      </trkpt>
      <trkpt lat="25.17612819559872150421142578125" lon="121.54805056750774383544921875">
        <ele>823</ele>
        <time>2020-01-01T03:43:14.000Z</time>
        <extensions>
          <ns3:TrackPointExtension/>
        </extensions>
      </trkpt>
      <trkpt lat="25.17611411400139331817626953125" lon="121.54804813675582408905029296875">
        <ele>823.20001220703125</ele>
        <time>2020-01-01T03:43:16.000Z</time>
        <extensions>
          <ns3:TrackPointExtension/>
        </extensions>
      </trkpt>
      <trkpt lat="25.1760910637676715850830078125" lon="121.54804763384163379669189453125">
        <ele>823.79998779296875</ele>
        <time>2020-01-01T03:43:19.000Z</time>
        <extensions>
          <ns3:TrackPointExtension/>
        </extensions>
      </trkpt>
      <trkpt lat="25.17594630829989910125732421875" lon="121.5481271781027317047119140625">
        <ele>830.20001220703125</ele>
        <time>2020-01-01T03:44:00.000Z</time>
        <extensions>
          <ns3:TrackPointExtension/>
        </extensions>
      </trkpt>
      <trkpt lat="25.1758325658738613128662109375" lon="121.54819834046065807342529296875">
        <ele>835.20001220703125</ele>
        <time>2020-01-01T03:44:40.000Z</time>
        <extensions>
          <ns3:TrackPointExtension/>
        </extensions>
      </trkpt>
      <trkpt lat="25.17577506601810455322265625" lon="121.5483025275170803070068359375">
        <ele>838.20001220703125</ele>
        <time>2020-01-01T03:45:28.000Z</time>
        <extensions>
          <ns3:TrackPointExtension/>
        </extensions>
      </trkpt>
      <trkpt lat="25.1756297238171100616455078125" lon="121.54830663464963436126708984375">
        <ele>841.79998779296875</ele>
        <time>2020-01-01T03:46:18.000Z</time>
        <extensions>
          <ns3:TrackPointExtension/>
        </extensions>
      </trkpt>
      <trkpt lat="25.17552285455167293548583984375" lon="121.54840537346899509429931640625">
        <ele>848.5999755859375</ele>
        <time>2020-01-01T03:47:33.000Z</time>
        <extensions>
          <ns3:TrackPointExtension/>
        </extensions>
      </trkpt>
      <trkpt lat="25.17536343075335025787353515625" lon="121.5484792180359363555908203125">
        <ele>857.4000244140625</ele>
        <time>2020-01-01T03:48:18.000Z</time>
        <extensions>
          <ns3:TrackPointExtension/>
        </extensions>
      </trkpt>
      <trkpt lat="25.1751878298819065093994140625" lon="121.54852288775146007537841796875">
        <ele>865.4000244140625</ele>
        <time>2020-01-01T03:49:04.000Z</time>
        <extensions>
          <ns3:TrackPointExtension/>
        </extensions>
      </trkpt>
      <trkpt lat="25.1750148274004459381103515625" lon="121.54849715530872344970703125">
        <ele>870.79998779296875</ele>
        <time>2020-01-01T03:49:36.000Z</time>
        <extensions>
          <ns3:TrackPointExtension/>
        </extensions>
      </trkpt>
      <trkpt lat="25.17484073527157306671142578125" lon="121.54847427271306514739990234375">
        <ele>876.79998779296875</ele>
        <time>2020-01-01T03:50:05.000Z</time>
        <extensions>
          <ns3:TrackPointExtension/>
        </extensions>
      </trkpt>
      <trkpt lat="25.174656249582767486572265625" lon="121.54845348559319972991943359375">
        <ele>883.4000244140625</ele>
        <time>2020-01-01T03:50:27.000Z</time>
        <extensions>
          <ns3:TrackPointExtension/>
        </extensions>
      </trkpt>
      <trkpt lat="25.174595899879932403564453125" lon="121.54846119694411754608154296875">
        <ele>886</ele>
        <time>2020-01-01T03:50:36.000Z</time>
        <extensions>
          <ns3:TrackPointExtension/>
        </extensions>
      </trkpt>
      <trkpt lat="25.1744247414171695709228515625" lon="121.54842616058886051177978515625">
        <ele>890.5999755859375</ele>
        <time>2020-01-01T03:51:07.000Z</time>
        <extensions>
          <ns3:TrackPointExtension/>
        </extensions>
      </trkpt>
      <trkpt lat="25.17427914775907993316650390625" lon="121.54844191856682300567626953125">
        <ele>896.20001220703125</ele>
        <time>2020-01-01T03:52:02.000Z</time>
        <extensions>
          <ns3:TrackPointExtension/>
        </extensions>
      </trkpt>
      <trkpt lat="25.17411318607628345489501953125" lon="121.548474691808223724365234375">
        <ele>903.20001220703125</ele>
        <time>2020-01-01T03:52:31.000Z</time>
        <extensions>
          <ns3:TrackPointExtension/>
        </extensions>
      </trkpt>
      <trkpt lat="25.17394973896443843841552734375" lon="121.54849849641323089599609375">
        <ele>910</ele>
        <time>2020-01-01T03:53:10.000Z</time>
        <extensions>
          <ns3:TrackPointExtension/>
        </extensions>
      </trkpt>
      <trkpt lat="25.17382317222654819488525390625" lon="121.5486378036439418792724609375">
        <ele>919.5999755859375</ele>
        <time>2020-01-01T03:53:51.000Z</time>
        <extensions>
          <ns3:TrackPointExtension/>
        </extensions>
      </trkpt>
      <trkpt lat="25.17366156913340091705322265625" lon="121.54860737733542919158935546875">
        <ele>925.20001220703125</ele>
        <time>2020-01-01T03:54:51.000Z</time>
        <extensions>
          <ns3:TrackPointExtension/>
        </extensions>
      </trkpt>
      <trkpt lat="25.173563919961452484130859375" lon="121.54860578477382659912109375">
        <ele>929.4000244140625</ele>
        <time>2020-01-01T03:55:11.000Z</time>
        <extensions>
          <ns3:TrackPointExtension/>
        </extensions>
      </trkpt>
      <trkpt lat="25.173457972705364227294921875" lon="121.54872857965528964996337890625">
        <ele>937.4000244140625</ele>
        <time>2020-01-01T03:56:02.000Z</time>
        <extensions>
          <ns3:TrackPointExtension/>
        </extensions>
      </trkpt>
      <trkpt lat="25.173360072076320648193359375" lon="121.54884978197515010833740234375">
        <ele>940.4000244140625</ele>
        <time>2020-01-01T03:56:55.000Z</time>
        <extensions>
          <ns3:TrackPointExtension/>
        </extensions>
      </trkpt>
      <trkpt lat="25.17332344315946102142333984375" lon="121.54885062016546726226806640625">
        <ele>941</ele>
        <time>2020-01-01T03:59:07.000Z</time>
        <extensions>
          <ns3:TrackPointExtension/>
        </extensions>
      </trkpt>
      <trkpt lat="25.17324850894510746002197265625" lon="121.54886034317314624786376953125">
        <ele>942.4000244140625</ele>
        <time>2020-01-01T04:00:42.000Z</time>
        <extensions>
          <ns3:TrackPointExtension/>
        </extensions>
      </trkpt>
      <trkpt lat="25.1732767559587955474853515625" lon="121.548826396465301513671875">
        <ele>941.4000244140625</ele>
        <time>2020-01-01T04:02:50.000Z</time>
        <extensions>
          <ns3:TrackPointExtension/>
        </extensions>
      </trkpt>
      <trkpt lat="25.17316284589469432830810546875" lon="121.54894173145294189453125">
        <ele>944.5999755859375</ele>
        <time>2020-01-01T04:03:39.000Z</time>
        <extensions>
          <ns3:TrackPointExtension/>
        </extensions>
      </trkpt>
      <trkpt lat="25.17303879372775554656982421875" lon="121.548983640968799591064453125">
        <ele>947.20001220703125</ele>
        <time>2020-01-01T04:04:38.000Z</time>
        <extensions>
          <ns3:TrackPointExtension/>
        </extensions>
      </trkpt>
      <trkpt lat="25.1728841476142406463623046875" lon="121.549062430858612060546875">
        <ele>950.79998779296875</ele>
        <time>2020-01-01T04:05:33.000Z</time>
        <extensions>
          <ns3:TrackPointExtension/>
        </extensions>
      </trkpt>
      <trkpt lat="25.17277811653912067413330078125" lon="121.54893997125327587127685546875">
        <ele>951</ele>
        <time>2020-01-01T04:06:16.000Z</time>
        <extensions>
          <ns3:TrackPointExtension/>
        </extensions>
      </trkpt>
      <trkpt lat="25.172901414334774017333984375" lon="121.54881290160119533538818359375">
        <ele>947.4000244140625</ele>
        <time>2020-01-01T04:07:16.000Z</time>
        <extensions>
          <ns3:TrackPointExtension/>
        </extensions>
      </trkpt>
      <trkpt lat="25.172904431819915771484375" lon="121.548770405352115631103515625">
        <ele>946.79998779296875</ele>
        <time>2020-01-01T04:09:39.000Z</time>
        <extensions>
          <ns3:TrackPointExtension/>
        </extensions>
      </trkpt>
      <trkpt lat="25.17275355756282806396484375" lon="121.54881231486797332763671875">
        <ele>948.79998779296875</ele>
        <time>2020-01-01T04:11:00.000Z</time>
        <extensions>
          <ns3:TrackPointExtension/>
        </extensions>
      </trkpt>
      <trkpt lat="25.17258315347135066986083984375" lon="121.5488926135003566741943359375">
        <ele>954.20001220703125</ele>
        <time>2020-01-01T04:11:30.000Z</time>
        <extensions>
          <ns3:TrackPointExtension/>
        </extensions>
      </trkpt>
      <trkpt lat="25.1724068820476531982421875" lon="121.54894097708165645599365234375">
        <ele>959.20001220703125</ele>
        <time>2020-01-01T04:12:08.000Z</time>
        <extensions>
          <ns3:TrackPointExtension/>
        </extensions>
      </trkpt>
      <trkpt lat="25.172292888164520263671875" lon="121.54901037923991680145263671875">
        <ele>963.20001220703125</ele>
        <time>2020-01-01T04:12:25.000Z</time>
        <extensions>
          <ns3:TrackPointExtension/>
        </extensions>
      </trkpt>
      <trkpt lat="25.172261036932468414306640625" lon="121.549014486372470855712890625">
        <ele>963.79998779296875</ele>
        <time>2020-01-01T04:12:28.000Z</time>
        <extensions>
          <ns3:TrackPointExtension/>
        </extensions>
      </trkpt>
      <trkpt lat="25.1720898784697055816650390625" lon="121.54909218661487102508544921875">
        <ele>967.4000244140625</ele>
        <time>2020-01-01T04:12:55.000Z</time>
        <extensions>
          <ns3:TrackPointExtension/>
        </extensions>
      </trkpt>
      <trkpt lat="25.1719128526747226715087890625" lon="121.54912789352238178253173828125">
        <ele>967.4000244140625</ele>
        <time>2020-01-01T04:13:19.000Z</time>
        <extensions>
          <ns3:TrackPointExtension/>
        </extensions>
      </trkpt>
      <trkpt lat="25.1717804186046123504638671875" lon="121.549071483314037322998046875">
        <ele>967</ele>
        <time>2020-01-01T04:13:36.000Z</time>
        <extensions>
          <ns3:TrackPointExtension/>
        </extensions>
      </trkpt>
      <trkpt lat="25.17169274389743804931640625" lon="121.5490793623030185699462890625">
        <ele>966.79998779296875</ele>
        <time>2020-01-01T04:13:47.000Z</time>
        <extensions>
          <ns3:TrackPointExtension/>
        </extensions>
      </trkpt>
      <trkpt lat="25.17167405225336551666259765625" lon="121.54907911084592342376708984375">
        <ele>966.79998779296875</ele>
        <time>2020-01-01T04:13:49.000Z</time>
        <extensions>
          <ns3:TrackPointExtension/>
        </extensions>
      </trkpt>
      <trkpt lat="25.1716365851461887359619140625" lon="121.54907651245594024658203125">
        <ele>966.79998779296875</ele>
        <time>2020-01-01T04:13:53.000Z</time>
        <extensions>
          <ns3:TrackPointExtension/>
        </extensions>
      </trkpt>
      <trkpt lat="25.17146802507340908050537109375" lon="121.54900937341153621673583984375">
        <ele>966.20001220703125</ele>
        <time>2020-01-01T04:14:15.000Z</time>
        <extensions>
          <ns3:TrackPointExtension/>
        </extensions>
      </trkpt>
      <trkpt lat="25.17130843363702297210693359375" lon="121.54891918413341045379638671875">
        <ele>964.20001220703125</ele>
        <time>2020-01-01T04:14:52.000Z</time>
        <extensions>
          <ns3:TrackPointExtension/>
        </extensions>
      </trkpt>
      <trkpt lat="25.171140544116497039794921875" lon="121.5489207766950130462646484375">
        <ele>965.5999755859375</ele>
        <time>2020-01-01T04:15:42.000Z</time>
        <extensions>
          <ns3:TrackPointExtension/>
        </extensions>
      </trkpt>
      <trkpt lat="25.1710310764610767364501953125" lon="121.5490719862282276153564453125">
        <ele>972.79998779296875</ele>
        <time>2020-01-01T04:16:29.000Z</time>
        <extensions>
          <ns3:TrackPointExtension/>
        </extensions>
      </trkpt>
      <trkpt lat="25.17096427269279956817626953125" lon="121.54906620271503925323486328125">
        <ele>974.20001220703125</ele>
        <time>2020-01-01T04:16:54.000Z</time>
        <extensions>
          <ns3:TrackPointExtension/>
        </extensions>
      </trkpt>
      <trkpt lat="25.1709435693919658660888671875" lon="121.549194864928722381591796875">
        <ele>977</ele>
        <time>2020-01-01T04:17:50.000Z</time>
        <extensions>
          <ns3:TrackPointExtension/>
        </extensions>
      </trkpt>
      <trkpt lat="25.17085849307477474212646484375" lon="121.54934682883322238922119140625">
        <ele>981.5999755859375</ele>
        <time>2020-01-01T04:18:30.000Z</time>
        <extensions>
          <ns3:TrackPointExtension/>
        </extensions>
      </trkpt>
      <trkpt lat="25.170742571353912353515625" lon="121.54948479495942592620849609375">
        <ele>989.4000244140625</ele>
        <time>2020-01-01T04:19:16.000Z</time>
        <extensions>
          <ns3:TrackPointExtension/>
        </extensions>
      </trkpt>
      <trkpt lat="25.1706589199602603912353515625" lon="121.54964002780616283416748046875">
        <ele>997.5999755859375</ele>
        <time>2020-01-01T04:20:03.000Z</time>
        <extensions>
          <ns3:TrackPointExtension/>
        </extensions>
      </trkpt>
      <trkpt lat="25.17070577479898929595947265625" lon="121.54973558150231838226318359375">
        <ele>998.79998779296875</ele>
        <time>2020-01-01T04:21:54.000Z</time>
        <extensions>
          <ns3:TrackPointExtension/>
        </extensions>
      </trkpt>
      <trkpt lat="25.17063268460333347320556640625" lon="121.549841277301311492919921875">
        <ele>1005</ele>
        <time>2020-01-01T04:22:59.000Z</time>
        <extensions>
          <ns3:TrackPointExtension/>
        </extensions>
      </trkpt>
      <trkpt lat="25.17070393078029155731201171875" lon="121.550007574260234832763671875">
        <ele>1009</ele>
        <time>2020-01-01T04:23:46.000Z</time>
        <extensions>
          <ns3:TrackPointExtension/>
        </extensions>
      </trkpt>
      <trkpt lat="25.1705740951001644134521484375" lon="121.55014076270163059234619140625">
        <ele>1018.79998779296875</ele>
        <time>2020-01-01T04:24:44.000Z</time>
        <extensions>
          <ns3:TrackPointExtension/>
        </extensions>
      </trkpt>
      <trkpt lat="25.170491449534893035888671875" lon="121.5503024496138095855712890625">
        <ele>1028</ele>
        <time>2020-01-01T04:25:28.000Z</time>
        <extensions>
          <ns3:TrackPointExtension/>
        </extensions>
      </trkpt>
      <trkpt lat="25.170425735414028167724609375" lon="121.55013891868293285369873046875">
        <ele>1023.79998779296875</ele>
        <time>2020-01-01T04:26:09.000Z</time>
        <extensions>
          <ns3:TrackPointExtension/>
        </extensions>
      </trkpt>
      <trkpt lat="25.170437805354595184326171875" lon="121.5502427704632282257080078125">
        <ele>1027.5999755859375</ele>
        <time>2020-01-01T04:28:05.000Z</time>
        <extensions>
          <ns3:TrackPointExtension/>
        </extensions>
      </trkpt>
      <trkpt lat="25.17049890942871570587158203125" lon="121.5504251606762409210205078125">
        <ele>1032.4000244140625</ele>
        <time>2020-01-01T04:28:35.000Z</time>
        <extensions>
          <ns3:TrackPointExtension/>
        </extensions>
      </trkpt>
      <trkpt lat="25.17044107429683208465576171875" lon="121.5505961515009403228759765625">
        <ele>1041</ele>
        <time>2020-01-01T04:29:02.000Z</time>
        <extensions>
          <ns3:TrackPointExtension/>
        </extensions>
      </trkpt>
      <trkpt lat="25.1703551597893238067626953125" lon="121.55061341822147369384765625">
        <ele>1043</ele>
        <time>2020-01-01T04:29:12.000Z</time>
        <extensions>
          <ns3:TrackPointExtension/>
        </extensions>
      </trkpt>
      <trkpt lat="25.17031735740602016448974609375" lon="121.550611071288585662841796875">
        <ele>1043.4000244140625</ele>
        <time>2020-01-01T04:29:16.000Z</time>
        <extensions>
          <ns3:TrackPointExtension/>
        </extensions>
      </trkpt>
      <trkpt lat="25.17029455862939357757568359375" lon="121.55060327611863613128662109375">
        <ele>1043.4000244140625</ele>
        <time>2020-01-01T04:29:19.000Z</time>
        <extensions>
          <ns3:TrackPointExtension/>
        </extensions>
      </trkpt>
      <trkpt lat="25.17028165049850940704345703125" lon="121.55059874989092350006103515625">
        <ele>1043.5999755859375</ele>
        <time>2020-01-01T04:29:21.000Z</time>
        <extensions>
          <ns3:TrackPointExtension/>
        </extensions>
      </trkpt>
      <trkpt lat="25.17026044428348541259765625" lon="121.55058793723583221435546875">
        <ele>1043.4000244140625</ele>
        <time>2020-01-01T04:29:24.000Z</time>
        <extensions>
          <ns3:TrackPointExtension/>
        </extensions>
      </trkpt>
      <trkpt lat="25.17024745233356952667236328125" lon="121.5505800582468509674072265625">
        <ele>1043.4000244140625</ele>
        <time>2020-01-01T04:29:26.000Z</time>
        <extensions>
          <ns3:TrackPointExtension/>
        </extensions>
      </trkpt>
      <trkpt lat="25.170077383518218994140625" lon="121.55050319619476795196533203125">
        <ele>1042.800048828125</ele>
        <time>2020-01-01T04:30:01.000Z</time>
        <extensions>
          <ns3:TrackPointExtension/>
        </extensions>
      </trkpt>
      <trkpt lat="25.1699239946901798248291015625" lon="121.550510823726654052734375">
        <ele>1045.199951171875</ele>
        <time>2020-01-01T04:30:44.000Z</time>
        <extensions>
          <ns3:TrackPointExtension/>
        </extensions>
      </trkpt>
      <trkpt lat="25.16981947235763072967529296875" lon="121.55066865496337413787841796875">
        <ele>1052</ele>
        <time>2020-01-01T04:31:22.000Z</time>
        <extensions>
          <ns3:TrackPointExtension/>
        </extensions>
      </trkpt>
      <trkpt lat="25.16977387480437755584716796875" lon="121.55085305683314800262451171875">
        <ele>1054</ele>
        <time>2020-01-01T04:31:59.000Z</time>
        <extensions>
          <ns3:TrackPointExtension/>
        </extensions>
      </trkpt>
      <trkpt lat="25.169869847595691680908203125" lon="121.551025472581386566162109375">
        <ele>1054</ele>
        <time>2020-01-01T04:32:33.000Z</time>
        <extensions>
          <ns3:TrackPointExtension/>
        </extensions>
      </trkpt>
      <trkpt lat="25.169950984418392181396484375" lon="121.5512066893279552459716796875">
        <ele>1054.199951171875</ele>
        <time>2020-01-01T04:33:02.000Z</time>
        <extensions>
          <ns3:TrackPointExtension/>
        </extensions>
      </trkpt>
      <trkpt lat="25.16989490948617458343505859375" lon="121.551379859447479248046875">
        <ele>1056.5999755859375</ele>
        <time>2020-01-01T04:33:27.000Z</time>
        <extensions>
          <ns3:TrackPointExtension/>
        </extensions>
      </trkpt>
      <trkpt lat="25.16984470188617706298828125" lon="121.5515114553272724151611328125">
        <ele>1058.4000244140625</ele>
        <time>2020-01-01T04:33:47.000Z</time>
        <extensions>
          <ns3:TrackPointExtension/>
        </extensions>
      </trkpt>
      <trkpt lat="25.169780664145946502685546875" lon="121.55168588273227214813232421875">
        <ele>1064.4000244140625</ele>
        <time>2020-01-01T04:34:14.000Z</time>
        <extensions>
          <ns3:TrackPointExtension/>
        </extensions>
      </trkpt>
      <trkpt lat="25.16978929750621318817138671875" lon="121.55188520438969135284423828125">
        <ele>1066.199951171875</ele>
        <time>2020-01-01T04:34:42.000Z</time>
        <extensions>
          <ns3:TrackPointExtension/>
        </extensions>
      </trkpt>
      <trkpt lat="25.16977421008050441741943359375" lon="121.5520760603249073028564453125">
        <ele>1067.800048828125</ele>
        <time>2020-01-01T04:35:13.000Z</time>
        <extensions>
          <ns3:TrackPointExtension/>
        </extensions>
      </trkpt>
      <trkpt lat="25.1697514951229095458984375" lon="121.55223456211388111114501953125">
        <ele>1069</ele>
        <time>2020-01-01T04:36:08.000Z</time>
        <extensions>
          <ns3:TrackPointExtension/>
        </extensions>
      </trkpt>
      <trkpt lat="25.169908739626407623291015625" lon="121.552295498549938201904296875">
        <ele>1070.4000244140625</ele>
        <time>2020-01-01T04:36:45.000Z</time>
        <extensions>
          <ns3:TrackPointExtension/>
        </extensions>
      </trkpt>
      <trkpt lat="25.17004561610519886016845703125" lon="121.55238568782806396484375">
        <ele>1073</ele>
        <time>2020-01-01T04:37:22.000Z</time>
        <extensions>
          <ns3:TrackPointExtension/>
        </extensions>
      </trkpt>
      <trkpt lat="25.170016698539257049560546875" lon="121.55257721431553363800048828125">
        <ele>1079.4000244140625</ele>
        <time>2020-01-01T04:38:08.000Z</time>
        <extensions>
          <ns3:TrackPointExtension/>
        </extensions>
      </trkpt>
      <trkpt lat="25.17017863690853118896484375" lon="121.55254452489316463470458984375">
        <ele>1079.199951171875</ele>
        <time>2020-01-01T04:38:51.000Z</time>
        <extensions>
          <ns3:TrackPointExtension/>
        </extensions>
      </trkpt>
      <trkpt lat="25.17035675235092639923095703125" lon="121.552551649510860443115234375">
        <ele>1080.5999755859375</ele>
        <time>2020-01-01T04:39:20.000Z</time>
        <extensions>
          <ns3:TrackPointExtension/>
        </extensions>
      </trkpt>
      <trkpt lat="25.17051114700734615325927734375" lon="121.552448384463787078857421875">
        <ele>1076</ele>
        <time>2020-01-01T04:39:54.000Z</time>
        <extensions>
          <ns3:TrackPointExtension/>
        </extensions>
      </trkpt>
      <trkpt lat="25.1706548966467380523681640625" lon="121.55243723653256893157958984375">
        <ele>1072.4000244140625</ele>
        <time>2020-01-01T04:41:07.000Z</time>
        <extensions>
          <ns3:TrackPointExtension/>
        </extensions>
      </trkpt>
      <trkpt lat="25.17071918584406375885009765625" lon="121.55260168947279453277587890625">
        <ele>1075.800048828125</ele>
        <time>2020-01-01T04:42:03.000Z</time>
        <extensions>
          <ns3:TrackPointExtension/>
        </extensions>
      </trkpt>
      <trkpt lat="25.1706119813024997711181640625" lon="121.5527315251529216766357421875">
        <ele>1082.800048828125</ele>
        <time>2020-01-01T04:42:45.000Z</time>
        <extensions>
          <ns3:TrackPointExtension/>
        </extensions>
      </trkpt>
      <trkpt lat="25.1705415733158588409423828125" lon="121.5529078803956508636474609375">
        <ele>1090.5999755859375</ele>
        <time>2020-01-01T04:43:25.000Z</time>
        <extensions>
          <ns3:TrackPointExtension/>
        </extensions>
      </trkpt>
      <trkpt lat="25.1704339496791362762451171875" lon="121.55305297113955020904541015625">
        <ele>1097.800048828125</ele>
        <time>2020-01-01T04:44:04.000Z</time>
        <extensions>
          <ns3:TrackPointExtension/>
        </extensions>
      </trkpt>
      <trkpt lat="25.170378126204013824462890625" lon="121.55324525199830532073974609375">
        <ele>1099.800048828125</ele>
        <time>2020-01-01T04:44:35.000Z</time>
        <extensions>
          <ns3:TrackPointExtension/>
        </extensions>
      </trkpt>
      <trkpt lat="25.17046965658664703369140625" lon="121.55318406410515308380126953125">
        <ele>1101.199951171875</ele>
        <time>2020-01-01T04:45:26.000Z</time>
        <extensions>
          <ns3:TrackPointExtension/>
        </extensions>
      </trkpt>
      <trkpt lat="25.170604772865772247314453125" lon="121.55315908603370189666748046875">
        <ele>1097.4000244140625</ele>
        <time>2020-01-01T04:45:58.000Z</time>
        <extensions>
          <ns3:TrackPointExtension/>
        </extensions>
      </trkpt>
      <trkpt lat="25.17070300877094268798828125" lon="121.5533025003969669342041015625">
        <ele>1093.5999755859375</ele>
        <time>2020-01-01T04:47:02.000Z</time>
        <extensions>
          <ns3:TrackPointExtension/>
        </extensions>
      </trkpt>
      <trkpt lat="25.17080484889447689056396484375" lon="121.55334130860865116119384765625">
        <ele>1090.4000244140625</ele>
        <time>2020-01-01T04:47:53.000Z</time>
        <extensions>
          <ns3:TrackPointExtension/>
        </extensions>
      </trkpt>
      <trkpt lat="25.17073360271751880645751953125" lon="121.553441472351551055908203125">
        <ele>1090.5999755859375</ele>
        <time>2020-01-01T04:48:48.000Z</time>
        <extensions>
          <ns3:TrackPointExtension/>
        </extensions>
      </trkpt>
      <trkpt lat="25.17069756053388118743896484375" lon="121.5534993074834346771240234375">
        <ele>1090.800048828125</ele>
        <time>2020-01-01T04:50:02.000Z</time>
        <extensions>
          <ns3:TrackPointExtension/>
        </extensions>
      </trkpt>
      <trkpt lat="25.17061759717762470245361328125" lon="121.55351850204169750213623046875">
        <ele>1092.800048828125</ele>
        <time>2020-01-01T04:51:30.000Z</time>
        <extensions>
          <ns3:TrackPointExtension/>
        </extensions>
      </trkpt>
      <trkpt lat="25.170619189739227294921875" lon="121.55353493057191371917724609375">
        <ele>1092.4000244140625</ele>
        <time>2020-01-01T04:54:45.000Z</time>
        <extensions>
          <ns3:TrackPointExtension/>
        </extensions>
      </trkpt>
      <trkpt lat="25.17062799073755741119384765625" lon="121.55349654145538806915283203125">
        <ele>1092.800048828125</ele>
        <time>2020-01-01T04:57:18.000Z</time>
        <extensions>
          <ns3:TrackPointExtension/>
        </extensions>
      </trkpt>
      <trkpt lat="25.1706622727215290069580078125" lon="121.55350693501532077789306640625">
        <ele>1091.5999755859375</ele>
        <time>2020-01-01T05:02:55.000Z</time>
        <extensions>
          <ns3:TrackPointExtension/>
        </extensions>
      </trkpt>
      <trkpt lat="25.17069320194423198699951171875" lon="121.55346988700330257415771484375">
        <ele>1091.199951171875</ele>
        <time>2020-01-01T05:07:52.000Z</time>
        <extensions>
          <ns3:TrackPointExtension/>
        </extensions>
      </trkpt>
      <trkpt lat="25.1707063615322113037109375" lon="121.55344876460731029510498046875">
        <ele>1091.199951171875</ele>
        <time>2020-01-01T05:09:39.000Z</time>
        <extensions>
          <ns3:TrackPointExtension/>
        </extensions>
      </trkpt>
      <trkpt lat="25.17074751667678356170654296875" lon="121.55345295555889606475830078125">
        <ele>1090</ele>
        <time>2020-01-01T05:13:17.000Z</time>
        <extensions>
          <ns3:TrackPointExtension/>
        </extensions>
      </trkpt>
      <trkpt lat="25.1707883365452289581298828125" lon="121.55336930416524410247802734375">
        <ele>1090.4000244140625</ele>
        <time>2020-01-01T05:14:45.000Z</time>
        <extensions>
          <ns3:TrackPointExtension/>
        </extensions>
      </trkpt>
      <trkpt lat="25.17075489275157451629638671875" lon="121.553320772945880889892578125">
        <ele>1092</ele>
        <time>2020-01-01T05:15:59.000Z</time>
        <extensions>
          <ns3:TrackPointExtension/>
        </extensions>
      </trkpt>
      <trkpt lat="25.1706388033926486968994140625" lon="121.55320711433887481689453125">
        <ele>1096.5999755859375</ele>
        <time>2020-01-01T05:16:54.000Z</time>
        <extensions>
          <ns3:TrackPointExtension/>
        </extensions>
      </trkpt>
      <trkpt lat="25.17052992247045040130615234375" lon="121.553133688867092132568359375">
        <ele>1098.4000244140625</ele>
        <time>2020-01-01T05:17:46.000Z</time>
        <extensions>
          <ns3:TrackPointExtension/>
        </extensions>
      </trkpt>
      <trkpt lat="25.17042397521436214447021484375" lon="121.5532726608216762542724609375">
        <ele>1100.199951171875</ele>
        <time>2020-01-01T05:18:28.000Z</time>
        <extensions>
          <ns3:TrackPointExtension/>
        </extensions>
      </trkpt>
      <trkpt lat="25.170412994921207427978515625" lon="121.5530782006680965423583984375">
        <ele>1098.5999755859375</ele>
        <time>2020-01-01T05:19:00.000Z</time>
        <extensions>
          <ns3:TrackPointExtension/>
        </extensions>
      </trkpt>
      <trkpt lat="25.17050360329449176788330078125" lon="121.55290243215858936309814453125">
        <ele>1091.4000244140625</ele>
        <time>2020-01-01T05:19:40.000Z</time>
        <extensions>
          <ns3:TrackPointExtension/>
        </extensions>
      </trkpt>
      <trkpt lat="25.17059840261936187744140625" lon="121.55273110605776309967041015625">
        <ele>1083.199951171875</ele>
        <time>2020-01-01T05:20:13.000Z</time>
        <extensions>
          <ns3:TrackPointExtension/>
        </extensions>
      </trkpt>
      <trkpt lat="25.17068331129848957061767578125" lon="121.55257855542004108428955078125">
        <ele>1076</ele>
        <time>2020-01-01T05:20:48.000Z</time>
        <extensions>
          <ns3:TrackPointExtension/>
        </extensions>
      </trkpt>
      <trkpt lat="25.17064978368580341339111328125" lon="121.5523972548544406890869140625">
        <ele>1071.4000244140625</ele>
        <time>2020-01-01T05:21:49.000Z</time>
        <extensions>
          <ns3:TrackPointExtension/>
        </extensions>
      </trkpt>
      <trkpt lat="25.17050611786544322967529296875" lon="121.5524854324758052825927734375">
        <ele>1077.199951171875</ele>
        <time>2020-01-01T05:22:40.000Z</time>
        <extensions>
          <ns3:TrackPointExtension/>
        </extensions>
      </trkpt>
      <trkpt lat="25.1704674772918224334716796875" lon="121.55250747688114643096923828125">
        <ele>1079</ele>
        <time>2020-01-01T05:22:46.000Z</time>
        <extensions>
          <ns3:TrackPointExtension/>
        </extensions>
      </trkpt>
      <trkpt lat="25.17042648978531360626220703125" lon="121.55251233838498592376708984375">
        <ele>1079.5999755859375</ele>
        <time>2020-01-01T05:22:51.000Z</time>
        <extensions>
          <ns3:TrackPointExtension/>
        </extensions>
      </trkpt>
      <trkpt lat="25.1704041101038455963134765625" lon="121.55251912772655487060546875">
        <ele>1079.5999755859375</ele>
        <time>2020-01-01T05:22:54.000Z</time>
        <extensions>
          <ns3:TrackPointExtension/>
        </extensions>
      </trkpt>
      <trkpt lat="25.17038240097463130950927734375" lon="121.552520804107189178466796875">
        <ele>1079.5999755859375</ele>
        <time>2020-01-01T05:22:57.000Z</time>
        <extensions>
          <ns3:TrackPointExtension/>
        </extensions>
      </trkpt>
      <trkpt lat="25.17035440541803836822509765625" lon="121.5525276772677898406982421875">
        <ele>1079.5999755859375</ele>
        <time>2020-01-01T05:23:01.000Z</time>
        <extensions>
          <ns3:TrackPointExtension/>
        </extensions>
      </trkpt>
      <trkpt lat="25.17017570324242115020751953125" lon="121.55255525372922420501708984375">
        <ele>1079.5999755859375</ele>
        <time>2020-01-01T05:23:33.000Z</time>
        <extensions>
          <ns3:TrackPointExtension/>
        </extensions>
      </trkpt>
      <trkpt lat="25.17001778818666934967041015625" lon="121.55255324207246303558349609375">
        <ele>1078.5999755859375</ele>
        <time>2020-01-01T05:24:18.000Z</time>
        <extensions>
          <ns3:TrackPointExtension/>
        </extensions>
      </trkpt>
      <trkpt lat="25.1700438559055328369140625" lon="121.55236012302339076995849609375">
        <ele>1072.199951171875</ele>
        <time>2020-01-01T05:24:53.000Z</time>
        <extensions>
          <ns3:TrackPointExtension/>
        </extensions>
      </trkpt>
      <trkpt lat="25.16991955228149890899658203125" lon="121.55227395705878734588623046875">
        <ele>1070.199951171875</ele>
        <time>2020-01-01T05:25:24.000Z</time>
        <extensions>
          <ns3:TrackPointExtension/>
        </extensions>
      </trkpt>
      <trkpt lat="25.16976566053926944732666015625" lon="121.55222131870687007904052734375">
        <ele>1069</ele>
        <time>2020-01-01T05:26:06.000Z</time>
        <extensions>
          <ns3:TrackPointExtension/>
        </extensions>
      </trkpt>
      <trkpt lat="25.16976197250187397003173828125" lon="121.55204228125512599945068359375">
        <ele>1067.4000244140625</ele>
        <time>2020-01-01T05:26:43.000Z</time>
        <extensions>
          <ns3:TrackPointExtension/>
        </extensions>
      </trkpt>
      <trkpt lat="25.1697409339249134063720703125" lon="121.5518544428050518035888671875">
        <ele>1065.5999755859375</ele>
        <time>2020-01-01T05:27:13.000Z</time>
        <extensions>
          <ns3:TrackPointExtension/>
        </extensions>
      </trkpt>
      <trkpt lat="25.16974336467683315277099609375" lon="121.55165621079504489898681640625">
        <ele>1064</ele>
        <time>2020-01-01T05:27:47.000Z</time>
        <extensions>
          <ns3:TrackPointExtension/>
        </extensions>
      </trkpt>
      <trkpt lat="25.1698234118521213531494140625" lon="121.55147348530590534210205078125">
        <ele>1058.4000244140625</ele>
        <time>2020-01-01T05:28:11.000Z</time>
        <extensions>
          <ns3:TrackPointExtension/>
        </extensions>
      </trkpt>
      <trkpt lat="25.169928856194019317626953125" lon="121.5513123013079166412353515625">
        <ele>1055.4000244140625</ele>
        <time>2020-01-01T05:28:38.000Z</time>
        <extensions>
          <ns3:TrackPointExtension/>
        </extensions>
      </trkpt>
      <trkpt lat="25.16994528472423553466796875" lon="121.551120020449161529541015625">
        <ele>1053.5999755859375</ele>
        <time>2020-01-01T05:29:19.000Z</time>
        <extensions>
          <ns3:TrackPointExtension/>
        </extensions>
      </trkpt>
      <trkpt lat="25.16990094445645809173583984375" lon="121.55101365409791469573974609375">
        <ele>1053.4000244140625</ele>
        <time>2020-01-01T05:30:03.000Z</time>
        <extensions>
          <ns3:TrackPointExtension/>
        </extensions>
      </trkpt>
      <trkpt lat="25.16979851759970188140869140625" lon="121.550852470099925994873046875">
        <ele>1053.5999755859375</ele>
        <time>2020-01-01T05:30:34.000Z</time>
        <extensions>
          <ns3:TrackPointExtension/>
        </extensions>
      </trkpt>
      <trkpt lat="25.16981008462607860565185546875" lon="121.55066261999309062957763671875">
        <ele>1052</ele>
        <time>2020-01-01T05:31:19.000Z</time>
        <extensions>
          <ns3:TrackPointExtension/>
        </extensions>
      </trkpt>
      <trkpt lat="25.16991519369184970855712890625" lon="121.550501771271228790283203125">
        <ele>1045</ele>
        <time>2020-01-01T05:31:56.000Z</time>
        <extensions>
          <ns3:TrackPointExtension/>
        </extensions>
      </trkpt>
      <trkpt lat="25.170060954988002777099609375" lon="121.5504858456552028656005859375">
        <ele>1042.4000244140625</ele>
        <time>2020-01-01T05:32:39.000Z</time>
        <extensions>
          <ns3:TrackPointExtension/>
        </extensions>
      </trkpt>
      <trkpt lat="25.1702331192791461944580078125" lon="121.5505525656044483184814453125">
        <ele>1042.5999755859375</ele>
        <time>2020-01-01T05:33:14.000Z</time>
        <extensions>
          <ns3:TrackPointExtension/>
        </extensions>
      </trkpt>
      <trkpt lat="25.17041173763573169708251953125" lon="121.550596319139003753662109375">
        <ele>1041.5999755859375</ele>
        <time>2020-01-01T05:33:49.000Z</time>
        <extensions>
          <ns3:TrackPointExtension/>
        </extensions>
      </trkpt>
      <trkpt lat="25.17048583365976810455322265625" lon="121.5504167787730693817138671875">
        <ele>1032.5999755859375</ele>
        <time>2020-01-01T05:34:16.000Z</time>
        <extensions>
          <ns3:TrackPointExtension/>
        </extensions>
      </trkpt>
      <trkpt lat="25.17049287445843219757080078125" lon="121.5502199716866016387939453125">
        <ele>1024.800048828125</ele>
        <time>2020-01-01T05:34:48.000Z</time>
        <extensions>
          <ns3:TrackPointExtension/>
        </extensions>
      </trkpt>
      <trkpt lat="25.17063050530850887298583984375" lon="121.55009851790964603424072265625">
        <ele>1015.20001220703125</ele>
        <time>2020-01-01T05:35:30.000Z</time>
        <extensions>
          <ns3:TrackPointExtension/>
        </extensions>
      </trkpt>
      <trkpt lat="25.17071239650249481201171875" lon="121.5499255992472171783447265625">
        <ele>1005.4000244140625</ele>
        <time>2020-01-01T05:36:15.000Z</time>
        <extensions>
          <ns3:TrackPointExtension/>
        </extensions>
      </trkpt>
      <trkpt lat="25.17067392356693744659423828125" lon="121.5497636608779430389404296875">
        <ele>1001</ele>
        <time>2020-01-01T05:37:11.000Z</time>
        <extensions>
          <ns3:TrackPointExtension/>
        </extensions>
      </trkpt>
      <trkpt lat="25.17066948115825653076171875" lon="121.54962594620883464813232421875">
        <ele>996.5999755859375</ele>
        <time>2020-01-01T05:38:41.000Z</time>
        <extensions>
          <ns3:TrackPointExtension/>
        </extensions>
      </trkpt>
      <trkpt lat="25.17074852250516414642333984375" lon="121.54944690875709056854248046875">
        <ele>988</ele>
        <time>2020-01-01T05:39:28.000Z</time>
        <extensions>
          <ns3:TrackPointExtension/>
        </extensions>
      </trkpt>
      <trkpt lat="25.17089587636291980743408203125" lon="121.54932796955108642578125">
        <ele>980.4000244140625</ele>
        <time>2020-01-01T05:40:15.000Z</time>
        <extensions>
          <ns3:TrackPointExtension/>
        </extensions>
      </trkpt>
      <trkpt lat="25.1709824614226818084716796875" lon="121.54920534230768680572509765625">
        <ele>976.4000244140625</ele>
        <time>2020-01-01T05:41:34.000Z</time>
        <extensions>
          <ns3:TrackPointExtension/>
        </extensions>
      </trkpt>
      <trkpt lat="25.17095840536057949066162109375" lon="121.549050025641918182373046875">
        <ele>974</ele>
        <time>2020-01-01T05:42:31.000Z</time>
        <extensions>
          <ns3:TrackPointExtension/>
        </extensions>
      </trkpt>
      <trkpt lat="25.17108388245105743408203125" lon="121.549009121954441070556640625">
        <ele>970.4000244140625</ele>
        <time>2020-01-01T05:43:31.000Z</time>
        <extensions>
          <ns3:TrackPointExtension/>
        </extensions>
      </trkpt>
      <trkpt lat="25.17118153162300586700439453125" lon="121.54889739118516445159912109375">
        <ele>964</ele>
        <time>2020-01-01T05:44:28.000Z</time>
        <extensions>
          <ns3:TrackPointExtension/>
        </extensions>
      </trkpt>
      <trkpt lat="25.17134766094386577606201171875" lon="121.548911221325397491455078125">
        <ele>964.20001220703125</ele>
        <time>2020-01-01T05:45:04.000Z</time>
        <extensions>
          <ns3:TrackPointExtension/>
        </extensions>
      </trkpt>
      <trkpt lat="25.17151798121631145477294921875" lon="121.54899998567998409271240234375">
        <ele>966.20001220703125</ele>
        <time>2020-01-01T05:45:25.000Z</time>
        <extensions>
          <ns3:TrackPointExtension/>
        </extensions>
      </trkpt>
      <trkpt lat="25.17169433645904064178466796875" lon="121.54905195347964763641357421875">
        <ele>966.79998779296875</ele>
        <time>2020-01-01T05:45:46.000Z</time>
        <extensions>
          <ns3:TrackPointExtension/>
        </extensions>
      </trkpt>
      <trkpt lat="25.17170053906738758087158203125" lon="121.54905228875577449798583984375">
        <ele>966.79998779296875</ele>
        <time>2020-01-01T05:45:47.000Z</time>
        <extensions>
          <ns3:TrackPointExtension/>
        </extensions>
      </trkpt>
      <trkpt lat="25.171713866293430328369140625" lon="121.5490508638322353363037109375">
        <ele>966.79998779296875</ele>
        <time>2020-01-01T05:45:49.000Z</time>
        <extensions>
          <ns3:TrackPointExtension/>
        </extensions>
      </trkpt>
      <trkpt lat="25.17189390957355499267578125" lon="121.5490887500345706939697265625">
        <ele>967.20001220703125</ele>
        <time>2020-01-01T05:46:13.000Z</time>
        <extensions>
          <ns3:TrackPointExtension/>
        </extensions>
      </trkpt>
      <trkpt lat="25.172065235674381256103515625" lon="121.54902261681854724884033203125">
        <ele>967</ele>
        <time>2020-01-01T05:46:33.000Z</time>
        <extensions>
          <ns3:TrackPointExtension/>
        </extensions>
      </trkpt>
      <trkpt lat="25.172244608402252197265625" lon="121.54895924963057041168212890625">
        <ele>963</ele>
        <time>2020-01-01T05:46:55.000Z</time>
        <extensions>
          <ns3:TrackPointExtension/>
        </extensions>
      </trkpt>
      <trkpt lat="25.17231593839824199676513671875" lon="121.54891281388700008392333984375">
        <ele>960.4000244140625</ele>
        <time>2020-01-01T05:47:05.000Z</time>
        <extensions>
          <ns3:TrackPointExtension/>
        </extensions>
      </trkpt>
      <trkpt lat="25.1725012622773647308349609375" lon="121.54887861572206020355224609375">
        <ele>955.5999755859375</ele>
        <time>2020-01-01T05:47:26.000Z</time>
        <extensions>
          <ns3:TrackPointExtension/>
        </extensions>
      </trkpt>
      <trkpt lat="25.1726739294826984405517578125" lon="121.54881994239985942840576171875">
        <ele>950.5999755859375</ele>
        <time>2020-01-01T05:47:53.000Z</time>
        <extensions>
          <ns3:TrackPointExtension/>
        </extensions>
      </trkpt>
      <trkpt lat="25.1728506200015544891357421875" lon="121.54876881279051303863525390625">
        <ele>947.4000244140625</ele>
        <time>2020-01-01T05:48:16.000Z</time>
        <extensions>
          <ns3:TrackPointExtension/>
        </extensions>
      </trkpt>
      <trkpt lat="25.17291180789470672607421875" lon="121.54883586801588535308837890625">
        <ele>947.4000244140625</ele>
        <time>2020-01-01T05:48:28.000Z</time>
        <extensions>
          <ns3:TrackPointExtension/>
        </extensions>
      </trkpt>
      <trkpt lat="25.172779373824596405029296875" lon="121.5489509515464305877685546875">
        <ele>951.20001220703125</ele>
        <time>2020-01-01T05:49:04.000Z</time>
        <extensions>
          <ns3:TrackPointExtension/>
        </extensions>
      </trkpt>
      <trkpt lat="25.17292345874011516571044921875" lon="121.5489811263978481292724609375">
        <ele>949</ele>
        <time>2020-01-01T05:49:40.000Z</time>
        <extensions>
          <ns3:TrackPointExtension/>
        </extensions>
      </trkpt>
      <trkpt lat="25.1730809547007083892822265625" lon="121.548904515802860260009765625">
        <ele>945.5999755859375</ele>
        <time>2020-01-01T05:50:25.000Z</time>
        <extensions>
          <ns3:TrackPointExtension/>
        </extensions>
      </trkpt>
      <trkpt lat="25.17320794053375720977783203125" lon="121.54884592629969120025634765625">
        <ele>942.79998779296875</ele>
        <time>2020-01-01T05:51:20.000Z</time>
        <extensions>
          <ns3:TrackPointExtension/>
        </extensions>
      </trkpt>
      <trkpt lat="25.17330517061054706573486328125" lon="121.548772417008876800537109375">
        <ele>940.4000244140625</ele>
        <time>2020-01-01T05:52:09.000Z</time>
        <extensions>
          <ns3:TrackPointExtension/>
        </extensions>
      </trkpt>
      <trkpt lat="25.1734041608870029449462890625" lon="121.548649370670318603515625">
        <ele>937.4000244140625</ele>
        <time>2020-01-01T05:53:01.000Z</time>
        <extensions>
          <ns3:TrackPointExtension/>
        </extensions>
      </trkpt>
      <trkpt lat="25.17347431741654872894287109375" lon="121.54854275286197662353515625">
        <ele>930.79998779296875</ele>
        <time>2020-01-01T05:53:55.000Z</time>
        <extensions>
          <ns3:TrackPointExtension/>
        </extensions>
      </trkpt>
      <trkpt lat="25.173633657395839691162109375" lon="121.54845180921256542205810546875">
        <ele>920.5999755859375</ele>
        <time>2020-01-01T05:54:27.000Z</time>
        <extensions>
          <ns3:TrackPointExtension/>
        </extensions>
      </trkpt>
      <trkpt lat="25.173781178891658782958984375" lon="121.548569239675998687744140625">
        <ele>918.5999755859375</ele>
        <time>2020-01-01T05:55:08.000Z</time>
        <extensions>
          <ns3:TrackPointExtension/>
        </extensions>
      </trkpt>
      <trkpt lat="25.1739342324435710906982421875" lon="121.54848567210137844085693359375">
        <ele>910</ele>
        <time>2020-01-01T05:55:49.000Z</time>
        <extensions>
          <ns3:TrackPointExtension/>
        </extensions>
      </trkpt>
      <trkpt lat="25.17406725324690341949462890625" lon="121.54838726855814456939697265625">
        <ele>901.5999755859375</ele>
        <time>2020-01-01T05:56:21.000Z</time>
        <extensions>
          <ns3:TrackPointExtension/>
        </extensions>
      </trkpt>
      <trkpt lat="25.1742208935320377349853515625" lon="121.54830981977283954620361328125">
        <ele>893.5999755859375</ele>
        <time>2020-01-01T05:56:42.000Z</time>
        <extensions>
          <ns3:TrackPointExtension/>
        </extensions>
      </trkpt>
      <trkpt lat="25.174234807491302490234375" lon="121.54831987805664539337158203125">
        <ele>893.4000244140625</ele>
        <time>2020-01-01T05:56:44.000Z</time>
        <extensions>
          <ns3:TrackPointExtension/>
        </extensions>
      </trkpt>
      <trkpt lat="25.1743881963193416595458984375" lon="121.54833882115781307220458984375">
        <ele>888.79998779296875</ele>
        <time>2020-01-01T05:57:01.000Z</time>
        <extensions>
          <ns3:TrackPointExtension/>
        </extensions>
      </trkpt>
      <trkpt lat="25.174564383924007415771484375" lon="121.548405624926090240478515625">
        <ele>885</ele>
        <time>2020-01-01T05:57:26.000Z</time>
        <extensions>
          <ns3:TrackPointExtension/>
        </extensions>
      </trkpt>
      <trkpt lat="25.1747295074164867401123046875" lon="121.54838006012141704559326171875">
        <ele>877.79998779296875</ele>
        <time>2020-01-01T05:57:45.000Z</time>
        <extensions>
          <ns3:TrackPointExtension/>
        </extensions>
      </trkpt>
      <trkpt lat="25.1748773641884326934814453125" lon="121.54843546450138092041015625">
        <ele>874</ele>
        <time>2020-01-01T05:58:02.000Z</time>
        <extensions>
          <ns3:TrackPointExtension/>
        </extensions>
      </trkpt>
      <trkpt lat="25.1750382967293262481689453125" lon="121.54847913421690464019775390625">
        <ele>869.4000244140625</ele>
        <time>2020-01-01T05:58:33.000Z</time>
        <extensions>
          <ns3:TrackPointExtension/>
        </extensions>
      </trkpt>
      <trkpt lat="25.1751331798732280731201171875" lon="121.54848382808268070220947265625">
        <ele>866</ele>
        <time>2020-01-01T05:58:46.000Z</time>
        <extensions>
          <ns3:TrackPointExtension/>
        </extensions>
      </trkpt>
      <trkpt lat="25.175194703042507171630859375" lon="121.5485020168125629425048828125">
        <ele>864.4000244140625</ele>
        <time>2020-01-01T05:58:54.000Z</time>
        <extensions>
          <ns3:TrackPointExtension/>
        </extensions>
      </trkpt>
      <trkpt lat="25.17537298612296581268310546875" lon="121.54848014004528522491455078125">
        <ele>857</ele>
        <time>2020-01-01T05:59:24.000Z</time>
        <extensions>
          <ns3:TrackPointExtension/>
        </extensions>
      </trkpt>
      <trkpt lat="25.17554573714733123779296875" lon="121.54842381365597248077392578125">
        <ele>848.4000244140625</ele>
        <time>2020-01-01T06:00:01.000Z</time>
        <extensions>
          <ns3:TrackPointExtension/>
        </extensions>
      </trkpt>
      <trkpt lat="25.17562461085617542266845703125" lon="121.54828735627233982086181640625">
        <ele>841.5999755859375</ele>
        <time>2020-01-01T06:01:27.000Z</time>
        <extensions>
          <ns3:TrackPointExtension/>
        </extensions>
      </trkpt>
      <trkpt lat="25.17579325474798679351806640625" lon="121.5482663176953792572021484375">
        <ele>837.20001220703125</ele>
        <time>2020-01-01T06:02:21.000Z</time>
        <extensions>
          <ns3:TrackPointExtension/>
        </extensions>
      </trkpt>
      <trkpt lat="25.1759098470211029052734375" lon="121.54813111759722232818603515625">
        <ele>831.20001220703125</ele>
        <time>2020-01-01T06:03:13.000Z</time>
        <extensions>
          <ns3:TrackPointExtension/>
        </extensions>
      </trkpt>
      <trkpt lat="25.1760478131473064422607421875" lon="121.54802374541759490966796875">
        <ele>824</ele>
        <time>2020-01-01T06:03:52.000Z</time>
        <extensions>
          <ns3:TrackPointExtension/>
        </extensions>
      </trkpt>
      <trkpt lat="25.1762318797409534454345703125" lon="121.54802969656884670257568359375">
        <ele>822.4000244140625</ele>
        <time>2020-01-01T06:04:30.000Z</time>
        <extensions>
          <ns3:TrackPointExtension/>
        </extensions>
      </trkpt>
      <trkpt lat="25.1764060556888580322265625" lon="121.5480711869895458221435546875">
        <ele>820.79998779296875</ele>
        <time>2020-01-01T06:05:08.000Z</time>
        <extensions>
          <ns3:TrackPointExtension/>
        </extensions>
      </trkpt>
      <trkpt lat="25.1765782199800014495849609375" lon="121.5480363182723522186279296875">
        <ele>817.5999755859375</ele>
        <time>2020-01-01T06:05:44.000Z</time>
        <extensions>
          <ns3:TrackPointExtension/>
        </extensions>
      </trkpt>
      <trkpt lat="25.1767599396407604217529296875" lon="121.5480021201074123382568359375">
        <ele>814.20001220703125</ele>
        <time>2020-01-01T06:06:10.000Z</time>
        <extensions>
          <ns3:TrackPointExtension/>
        </extensions>
      </trkpt>
      <trkpt lat="25.176820456981658935546875" lon="121.547844372689723968505859375">
        <ele>812.20001220703125</ele>
        <time>2020-01-01T06:06:35.000Z</time>
        <extensions>
          <ns3:TrackPointExtension/>
        </extensions>
      </trkpt>
      <trkpt lat="25.1768035255372524261474609375" lon="121.547648906707763671875">
        <ele>812.20001220703125</ele>
        <time>2020-01-01T06:06:56.000Z</time>
        <extensions>
          <ns3:TrackPointExtension/>
        </extensions>
      </trkpt>
      <trkpt lat="25.176803357899188995361328125" lon="121.5476256050169467926025390625">
        <ele>812.20001220703125</ele>
        <time>2020-01-01T06:06:58.000Z</time>
        <extensions>
          <ns3:TrackPointExtension/>
        </extensions>
      </trkpt>
      <trkpt lat="25.1768243126571178436279296875" lon="121.54752946458756923675537109375">
        <ele>812</ele>
        <time>2020-01-01T06:07:07.000Z</time>
        <extensions>
          <ns3:TrackPointExtension/>
        </extensions>
      </trkpt>
    </trkseg>
  </trk>
</gpx>
